*******************************************************************************
 Revised: Jan 23, 2020             Iapetus / (Saturn)                       608
                          http://ssd.jpl.nasa.gov/?sat_phys_par
                            http://ssd.jpl.nasa.gov/?sat_elem

 SATELLITE PHYSICAL PROPERTIES:
  Radius (km)            = 734.5    +- 4.0    Density (g/cm^3)=  1.088 +- 0.018 
  Mass (10^19 kg)        = 180.59             Geometric Albedo=  0.6
  GM (km^3/s^2)          = 120.51   +- 0.03   V(1,0)          =   +1.5 (.7-2.5)

 SATELLITE ORBITAL DATA (mean values with respect to local Laplace plane):
  Semi-major axis, a (km)= 3560.84 (10^3)     Orbital period    = 79.33 d
  Eccentricity, e        =     0.0283         Rotational period = Synchronous
  Inclination, i  (deg)  =     7.489
*******************************************************************************
 
 
*******************************************************************************
Ephemeris / WWW_USER Wed Jun 17 13:25:55 2020 Pasadena, USA      / Horizons
*******************************************************************************
Target body name: Iapetus (608)                   {source: sat427l_merged_DE438}
Center body name: Solar System Barycenter (0)     {source: DE431mx}
Center-site name: BODY CENTER
*******************************************************************************
Start time      : A.D. 2000-Jun-05 00:00:00.0000 TDB
Stop  time      : A.D. 2040-May-26 00:00:00.0000 TDB
Step-size       : 14400 minutes
*******************************************************************************
Center geodetic : 0.00000000,0.00000000,0.0000000 {E-lon(deg),Lat(deg),Alt(km)}
Center cylindric: 0.00000000,0.00000000,0.0000000 {E-lon(deg),Dxy(km),Dz(km)}
Center radii    : (undefined)                                                  
Output units    : AU-D
Output type     : GEOMETRIC cartesian states
Output format   : 3 (position, velocity, LT, range, range-rate)
Reference frame : Ecliptic of J2000.0
*******************************************************************************
JDTDB
   X     Y     Z
   VX    VY    VZ
   LT    RG    RR
*******************************************************************************
$$SOE
2463700.500000000 = A.D. 2033-Apr-13 00:00:00.0000 TDB 
 X =-1.139831043668706E+00 Y = 8.921232355475439E+00 Z =-1.070176564049329E-01
 VX=-4.190575709481999E-03 VY= 7.741752847092701E-05 VZ=-2.692655274388975E-04
 LT= 5.194726524178257E-02 RG= 8.994390158719776E+00 RR= 6.110502338789803E-04
2463710.500000000 = A.D. 2033-Apr-23 00:00:00.0000 TDB 
 X =-1.186668599182227E+00 Y = 8.927495753923878E+00 Z =-1.099935569286497E-01
 VX=-5.314356290109692E-03 VY= 1.032111449899412E-03 VZ=-2.656024268807314E-04
 LT= 5.201830211913177E-02 RG= 9.006689812754727E+00 RR= 1.726468347398154E-03
2463720.500000000 = A.D. 2033-May-03 00:00:00.0000 TDB 
 X =-1.247370778781896E+00 Y = 8.938049191596569E+00 Z =-1.112072575117866E-01
 VX=-6.799833108414980E-03 VY= 8.685107527398078E-04 VZ= 6.527702752592639E-05
 LT= 5.212610049512697E-02 RG= 9.025354522969296E+00 RR= 1.799092282847828E-03
2463730.500000000 = A.D. 2033-May-13 00:00:00.0000 TDB 
 X =-1.320466115966384E+00 Y = 8.941292228418838E+00 Z =-1.083209416233186E-01
 VX=-7.645759019857546E-03 VY=-3.390473799360455E-04 VZ= 5.039710161408004E-04
 LT= 5.220444692236451E-02 RG= 9.038919786334683E+00 RR= 7.755189296907788E-04
2463740.500000000 = A.D. 2033-May-23 00:00:00.0000 TDB 
 X =-1.396407866825286E+00 Y = 8.930488453168067E+00 Z =-1.017349980078850E-01
 VX=-7.356925814052757E-03 VY=-1.781806102901384E-03 VZ= 7.666054126974275E-04
 LT= 5.220823520097564E-02 RG= 9.039575706443271E+00 RR=-6.324545013114321E-04
2463750.500000000 = A.D. 2033-Jun-02 00:00:00.0000 TDB 
 X =-1.464693488254338E+00 Y = 8.907683257842200E+00 Z =-9.403821313067399E-02
 VX=-6.207269574101219E-03 VY=-2.633008311896646E-03 VZ= 7.207545234964694E-04
 LT= 5.214016629765877E-02 RG= 9.027789941181934E+00 RR=-1.598401745513147E-03
2463760.500000000 = A.D. 2033-Jun-12 00:00:00.0000 TDB 
 X =-1.519906114720504E+00 Y = 8.881139175665668E+00 Z =-8.820273895455452E-02
 VX=-4.863884083536297E-03 VY=-2.506830846583656E-03 VZ= 4.137541303411347E-04
 LT= 5.204140306326843E-02 RG= 9.010689617241697E+00 RR=-1.654408414815191E-03
2463770.500000000 = A.D. 2033-Jun-22 00:00:00.0000 TDB 
 X =-1.563674558669135E+00 Y = 8.860548728483220E+00 Z =-8.610030084195754E-02
 VX=-4.025522703232654E-03 VY=-1.494569046044585E-03 VZ= 7.688503882271358E-06
 LT= 5.196741146861014E-02 RG= 8.997878369763608E+00 RR=-7.722660966410316E-04
2463780.500000000 = A.D. 2033-Jul-02 00:00:00.0000 TDB 
 X =-1.603823627984758E+00 Y = 8.852493141929024E+00 Z =-8.764241271184618E-02
 VX=-4.192807963045303E-03 VY=-1.210056134906773E-04 VZ=-2.769516124267393E-04
 LT= 5.196251728770093E-02 RG= 8.997030968607842E+00 RR= 6.310521595958899E-04
2463790.500000000 = A.D. 2033-Jul-12 00:00:00.0000 TDB 
 X =-1.650978519272661E+00 Y = 8.856524094441717E+00 Z =-9.057697369645261E-02
 VX=-5.367450238087186E-03 VY= 7.754841742007751E-04 VZ=-2.493434270183603E-04
 LT= 5.203480903270906E-02 RG= 9.009547896242655E+00 RR= 1.748392291650285E-03
2463800.500000000 = A.D. 2033-Jul-22 00:00:00.0000 TDB 
 X =-1.712199699241364E+00 Y = 8.864092024208009E+00 Z =-9.153299780458220E-02
 VX=-6.838207184467253E-03 VY= 5.293079459521158E-04 VZ= 9.776875362960768E-05
 LT= 5.214373030993161E-02 RG= 9.028407030777762E+00 RR= 1.815520889085975E-03
2463810.500000000 = A.D. 2033-Aug-01 00:00:00.0000 TDB 
 X =-1.785348085338235E+00 Y = 8.863667248880972E+00 Z =-8.832389074306467E-02
 VX=-7.612563693972296E-03 VY=-7.231943483173490E-04 VZ= 5.326111725302495E-04
 LT= 5.222290806611677E-02 RG= 9.042116234288413E+00 RR= 7.889612873731006E-04
2463820.500000000 = A.D. 2033-Aug-11 00:00:00.0000 TDB 
 X =-1.860564587239654E+00 Y = 8.849063706072521E+00 Z =-8.153873133464012E-02
 VX=-7.248949115383130E-03 VY=-2.148052434148820E-03 VZ= 7.764119870046623E-04
 LT= 5.222751047060391E-02 RG= 9.042913115922758E+00 RR=-6.175468448948499E-04
2463830.500000000 = A.D. 2033-Aug-21 00:00:00.0000 TDB 
 X =-1.927544531212310E+00 Y = 8.822871816435375E+00 Z =-7.385060031083800E-02
 VX=-6.061985838944272E-03 VY=-2.940048147722884E-03 VZ= 7.098857489115980E-04
 LT= 5.216030096784143E-02 RG= 9.031276151254728E+00 RR=-1.584199789537524E-03
2463840.500000000 = A.D. 2033-Aug-31 00:00:00.0000 TDB 
 X =-1.981320214393723E+00 Y = 8.793600158813950E+00 Z =-6.819690700423943E-02
 VX=-4.729717812950227E-03 VY=-2.746526426601768E-03 VZ= 3.901515367484330E-04
 LT= 5.206228048268988E-02 RG= 9.014304430358610E+00 RR=-1.642653290937922E-03
2463850.500000000 = A.D. 2033-Sep-10 00:00:00.0000 TDB 
 X =-2.023984581726103E+00 Y = 8.770870560976489E+00 Z =-6.633929908918212E-02
 VX=-3.944680156824505E-03 VY=-1.688749592830635E-03 VZ=-1.512060431666583E-05
 LT= 5.198899638414844E-02 RG= 9.001615682035789E+00 RR=-7.584004274585320E-04
2463860.500000000 = A.D. 2033-Sep-20 00:00:00.0000 TDB 
 X =-2.063689426437690E+00 Y = 8.760905492092107E+00 Z =-6.804123091782238E-02
 VX=-4.184958421779972E-03 VY=-3.186806878220788E-04 VZ=-2.838036019856129E-04
 LT= 5.198509006108101E-02 RG= 9.000939323163175E+00 RR= 6.514690514880453E-04
2463870.500000000 = A.D. 2033-Sep-30 00:00:00.0000 TDB 
 X =-2.111047024519949E+00 Y = 8.762693524358909E+00 Z =-7.092476379627553E-02
 VX=-5.407144631181041E-03 VY= 5.164305950321582E-04 VZ=-2.321888689263415E-04
 LT= 5.205864861069822E-02 RG= 9.013675591216696E+00 RR= 1.770257581924326E-03
2463880.500000000 = A.D. 2033-Oct-10 00:00:00.0000 TDB 
 X =-2.172628511143502E+00 Y = 8.767251554293020E+00 Z =-7.161908614074233E-02
 VX=-6.858378904666739E-03 VY= 1.884413296542798E-04 VZ= 1.300184198805959E-04
 LT= 5.216867611957136E-02 RG= 9.032726263824596E+00 RR= 1.831507986093950E-03
2463890.500000000 = A.D. 2033-Oct-20 00:00:00.0000 TDB 
 X =-2.245634466290956E+00 Y = 8.763161906543377E+00 Z =-6.809673255852215E-02
 VX=-7.559164043127480E-03 VY=-1.104830335935880E-03 VZ= 5.596661651825565E-04
 LT= 5.224865933132462E-02 RG= 9.046574927643720E+00 RR= 8.019831615151111E-04
2463900.500000000 = A.D. 2033-Oct-30 00:00:00.0000 TDB 
 X =-2.319929559899754E+00 Y = 8.744804463343590E+00 Z =-6.113164825229876E-02
 VX=-7.122394662896785E-03 VY=-2.507938866470565E-03 VZ= 7.841066071135832E-04
 LT= 5.225405288270728E-02 RG= 9.047508792116682E+00 RR=-6.030295114640190E-04
2463910.500000000 = A.D. 2033-Nov-09 00:00:00.0000 TDB 
 X =-2.385433477726302E+00 Y = 8.715299695850701E+00 Z =-5.347236533709206E-02
 VX=-5.901302838810804E-03 VY=-3.239065392599267E-03 VZ= 6.971959852934653E-04
 LT= 5.218768110273041E-02 RG= 9.036016874652651E+00 RR=-1.570331396270549E-03
2463920.500000000 = A.D. 2033-Nov-19 00:00:00.0000 TDB 
 X =-2.437634525094999E+00 Y = 8.683380086048210E+00 Z =-4.801509027700944E-02
 VX=-4.583338721138737E-03 VY=-2.978647389159846E-03 VZ= 3.655018518636312E-04
 LT= 5.209039119685284E-02 RG= 9.019171649636569E+00 RR=-1.630944935008964E-03
2463930.500000000 = A.D. 2033-Nov-29 00:00:00.0000 TDB 
 X =-2.479085319681992E+00 Y = 8.658576749921940E+00 Z =-4.640775462177696E-02
 VX=-3.853906356287249E-03 VY=-1.877739090855359E-03 VZ=-3.794948445065509E-05
 LT= 5.201782363497586E-02 RG= 9.006606965791311E+00 RR=-7.441897085433266E-04
2463940.500000000 = A.D. 2033-Dec-09 00:00:00.0000 TDB 
 X =-2.518249076099040E+00 Y = 8.646735387493260E+00 Z =-4.826486251958650E-02
 VX=-4.167130896606662E-03 VY=-5.150398667655216E-04 VZ=-2.897870848507651E-04
 LT= 5.201492884993631E-02 RG= 9.006105749298969E+00 RR= 6.722602188758212E-04
